FENGYUN 1C DEB          
1 38810U 99025EVA 17345.08571851  .00001164  00000-0  77388-3 0  9998
2 38810  99.3248  84.8304 0136839 152.7376 332.0230 13.98912164218700
